CCSDS_OMM_VERS = 2.0
CREATION_DATE  = 
ORIGINATOR     = 

OBJECT_NAME    = DELTA 2 R/B(1)
OBJECT_ID      = 1990-008B
CENTER_NAME    = EARTH
REF_FRAME      = TEME
TIME_SYSTEM    = UTC
MEAN_ELEMENT_THEORY = SGP/SGP4

EPOCH          = 2026-01-04T00:38:45.366144
MEAN_MOTION    = 15.47495909
ECCENTRICITY   = .01052782
INCLINATION    = 35.6042
RA_OF_ASC_NODE = 236.3968
ARG_OF_PERICENTER = 20.6929
MEAN_ANOMALY   = 339.8023

EPHEMERIS_TYPE = 0
CLASSIFICATION_TYPE = U
NORAD_CAT_ID   = 20453
ELEMENT_SET_NO = 999
REV_AT_EPOCH   = 91608
BSTAR          = .10059426E-2
MEAN_MOTION_DOT = .66989E-3
MEAN_MOTION_DDOT = 0

CCSDS_OMM_VERS = 2.0
CREATION_DATE  = 
ORIGINATOR     = 

OBJECT_NAME    = COSMOS 2058
OBJECT_ID      = 1990-010A
CENTER_NAME    = EARTH
REF_FRAME      = TEME
TIME_SYSTEM    = UTC
MEAN_ELEMENT_THEORY = SGP/SGP4

EPOCH          = 2026-01-04T17:50:49.015104
MEAN_MOTION    = 15.10734374
ECCENTRICITY   = .0010031
INCLINATION    = 82.4720
RA_OF_ASC_NODE = 110.4050
ARG_OF_PERICENTER = 190.6287
MEAN_ANOMALY   = 169.4732

EPHEMERIS_TYPE = 0
CLASSIFICATION_TYPE = U
NORAD_CAT_ID   = 20465
ELEMENT_SET_NO = 999
REV_AT_EPOCH   = 93258
BSTAR          = .3246E-3
MEAN_MOTION_DOT = .5414E-4
MEAN_MOTION_DDOT = 0

CCSDS_OMM_VERS = 2.0
CREATION_DATE  = 
ORIGINATOR     = 

OBJECT_NAME    = SL-14 R/B
OBJECT_ID      = 1990-010B
CENTER_NAME    = EARTH
REF_FRAME      = TEME
TIME_SYSTEM    = UTC
MEAN_ELEMENT_THEORY = SGP/SGP4

EPOCH          = 2026-01-04T14:40:10.534656
MEAN_MOTION    = 14.83498817
ECCENTRICITY   = .0020603
INCLINATION    = 82.5034
RA_OF_ASC_NODE = 327.5665
ARG_OF_PERICENTER = 147.2379
MEAN_ANOMALY   = 213.0118

EPHEMERIS_TYPE = 0
CLASSIFICATION_TYPE = U
NORAD_CAT_ID   = 20466
ELEMENT_SET_NO = 999
REV_AT_EPOCH   = 91898
BSTAR          = .92501E-4
MEAN_MOTION_DOT = .787E-5
MEAN_MOTION_DDOT = 0

CCSDS_OMM_VERS = 2.0
CREATION_DATE  = 
ORIGINATOR     = 

OBJECT_NAME    = SL-14 R/B
OBJECT_ID      = 1990-018B
CENTER_NAME    = EARTH
REF_FRAME      = TEME
TIME_SYSTEM    = UTC
MEAN_ELEMENT_THEORY = SGP/SGP4

EPOCH          = 2026-01-04T20:05:49.930944
MEAN_MOTION    = 14.82076604
ECCENTRICITY   = .0015194
INCLINATION    = 82.5221
RA_OF_ASC_NODE = 282.7784
ARG_OF_PERICENTER = 305.6523
MEAN_ANOMALY   = 54.3276

EPHEMERIS_TYPE = 0
CLASSIFICATION_TYPE = U
NORAD_CAT_ID   = 20511
ELEMENT_SET_NO = 999
REV_AT_EPOCH   = 91312
BSTAR          = .97459E-4
MEAN_MOTION_DOT = .799E-5
MEAN_MOTION_DDOT = 0

CCSDS_OMM_VERS = 2.0
CREATION_DATE  = 
ORIGINATOR     = 

OBJECT_NAME    = HST
OBJECT_ID      = 1990-037B
CENTER_NAME    = EARTH
REF_FRAME      = TEME
TIME_SYSTEM    = UTC
MEAN_ELEMENT_THEORY = SGP/SGP4

EPOCH          = 2026-01-04T10:52:04.771200
MEAN_MOTION    = 15.28391830
ECCENTRICITY   = .00025256
INCLINATION    = 28.4666
RA_OF_ASC_NODE = 117.8486
ARG_OF_PERICENTER = 116.7014
MEAN_ANOMALY   = 243.3840

EPHEMERIS_TYPE = 0
CLASSIFICATION_TYPE = U
NORAD_CAT_ID   = 20580
ELEMENT_SET_NO = 999
REV_AT_EPOCH   = 76347
BSTAR          = .29117561E-3
MEAN_MOTION_DOT = .8513E-4
MEAN_MOTION_DDOT = 0

CCSDS_OMM_VERS = 2.0
CREATION_DATE  = 
ORIGINATOR     = 

OBJECT_NAME    = SL-16 R/B
OBJECT_ID      = 1990-046B
CENTER_NAME    = EARTH
REF_FRAME      = TEME
TIME_SYSTEM    = UTC
MEAN_ELEMENT_THEORY = SGP/SGP4

EPOCH          = 2026-01-04T13:54:36.081792
MEAN_MOTION    = 14.15001310
ECCENTRICITY   = .0012802
INCLINATION    = 70.9996
RA_OF_ASC_NODE = 72.5565
ARG_OF_PERICENTER = 34.6196
MEAN_ANOMALY   = 325.5758

EPHEMERIS_TYPE = 0
CLASSIFICATION_TYPE = U
NORAD_CAT_ID   = 20625
ELEMENT_SET_NO = 999
REV_AT_EPOCH   = 83932
BSTAR          = .21369E-3
MEAN_MOTION_DOT = .366E-5
MEAN_MOTION_DDOT = 0

CCSDS_OMM_VERS = 2.0
CREATION_DATE  = 
ORIGINATOR     = 

OBJECT_NAME    = COSMOS 2084
OBJECT_ID      = 1990-055A
CENTER_NAME    = EARTH
REF_FRAME      = TEME
TIME_SYSTEM    = UTC
MEAN_ELEMENT_THEORY = SGP/SGP4

EPOCH          = 2026-01-04T19:43:18.045696
MEAN_MOTION    = 15.05186824
ECCENTRICITY   = .0027845
INCLINATION    = 62.7887
RA_OF_ASC_NODE = 193.3356
ARG_OF_PERICENTER = 177.9923
MEAN_ANOMALY   = 182.1294

EPHEMERIS_TYPE = 0
CLASSIFICATION_TYPE = U
NORAD_CAT_ID   = 20663
ELEMENT_SET_NO = 999
REV_AT_EPOCH   = 92670
BSTAR          = .3143E-3
MEAN_MOTION_DOT = .434E-4
MEAN_MOTION_DDOT = 0

CCSDS_OMM_VERS = 2.0
CREATION_DATE  = 
ORIGINATOR     = 

OBJECT_NAME    = SL-6 R/B(2)
OBJECT_ID      = 1990-055D
CENTER_NAME    = EARTH
REF_FRAME      = TEME
TIME_SYSTEM    = UTC
MEAN_ELEMENT_THEORY = SGP/SGP4

EPOCH          = 2026-01-04T15:39:06.085728
MEAN_MOTION    = 15.03215788
ECCENTRICITY   = .0015572
INCLINATION    = 62.7841
RA_OF_ASC_NODE = 111.5562
ARG_OF_PERICENTER = 323.6778
MEAN_ANOMALY   = 36.3263

EPHEMERIS_TYPE = 0
CLASSIFICATION_TYPE = U
NORAD_CAT_ID   = 20666
ELEMENT_SET_NO = 999
REV_AT_EPOCH   = 92856
BSTAR          = .2638E-3
MEAN_MOTION_DOT = .3399E-4
MEAN_MOTION_DDOT = 0

CCSDS_OMM_VERS = 2.0
CREATION_DATE  = 
ORIGINATOR     = 

OBJECT_NAME    = SL-8 R/B
OBJECT_ID      = 1990-078B
CENTER_NAME    = EARTH
REF_FRAME      = TEME
TIME_SYSTEM    = UTC
MEAN_ELEMENT_THEORY = SGP/SGP4

EPOCH          = 2026-01-04T19:43:54.771744
MEAN_MOTION    = 14.86777954
ECCENTRICITY   = .0369146
INCLINATION    = 82.9069
RA_OF_ASC_NODE = 308.6370
ARG_OF_PERICENTER = 228.1395
MEAN_ANOMALY   = 128.7779

EPHEMERIS_TYPE = 0
CLASSIFICATION_TYPE = U
NORAD_CAT_ID   = 20775
ELEMENT_SET_NO = 999
REV_AT_EPOCH   = 79980
BSTAR          = .45069E-3
MEAN_MOTION_DOT = .14729E-3
MEAN_MOTION_DDOT = 0

CCSDS_OMM_VERS = 2.0
CREATION_DATE  = 
ORIGINATOR     = 

OBJECT_NAME    = SL-8 R/B
OBJECT_ID      = 1991-006B
CENTER_NAME    = EARTH
REF_FRAME      = TEME
TIME_SYSTEM    = UTC
MEAN_ELEMENT_THEORY = SGP/SGP4

EPOCH          = 2026-01-04T16:56:29.613984
MEAN_MOTION    = 13.77492913
ECCENTRICITY   = .0021737
INCLINATION    = 82.9410
RA_OF_ASC_NODE = 217.6294
ARG_OF_PERICENTER = 212.0767
MEAN_ANOMALY   = 218.3405

EPHEMERIS_TYPE = 0
CLASSIFICATION_TYPE = U
NORAD_CAT_ID   = 21088
ELEMENT_SET_NO = 999
REV_AT_EPOCH   = 75526
BSTAR          = .19173E-4
MEAN_MOTION_DOT = .34E-6
MEAN_MOTION_DDOT = 0

CCSDS_OMM_VERS = 2.0
CREATION_DATE  = 
ORIGINATOR     = 

OBJECT_NAME    = OKEAN-3
OBJECT_ID      = 1991-039A
CENTER_NAME    = EARTH
REF_FRAME      = TEME
TIME_SYSTEM    = UTC
MEAN_ELEMENT_THEORY = SGP/SGP4

EPOCH          = 2026-01-04T19:58:09.228864
MEAN_MOTION    = 15.04291180
ECCENTRICITY   = .0014237
INCLINATION    = 82.5151
RA_OF_ASC_NODE = 38.6908
ARG_OF_PERICENTER = 181.8982
MEAN_ANOMALY   = 178.2193

EPHEMERIS_TYPE = 0
CLASSIFICATION_TYPE = U
NORAD_CAT_ID   = 21397
ELEMENT_SET_NO = 999
REV_AT_EPOCH   = 85543
BSTAR          = .34749E-3
MEAN_MOTION_DOT = .4874E-4
MEAN_MOTION_DDOT = 0

CCSDS_OMM_VERS = 2.0
CREATION_DATE  = 
ORIGINATOR     = 

OBJECT_NAME    = COSMOS 2151
OBJECT_ID      = 1991-042A
CENTER_NAME    = EARTH
REF_FRAME      = TEME
TIME_SYSTEM    = UTC
MEAN_ELEMENT_THEORY = SGP/SGP4

EPOCH          = 2026-01-04T20:12:12.787488
MEAN_MOTION    = 14.99803661
ECCENTRICITY   = .0011138
INCLINATION    = 82.4975
RA_OF_ASC_NODE = 145.2395
ARG_OF_PERICENTER = 275.9928
MEAN_ANOMALY   = 84.0026

EPHEMERIS_TYPE = 0
CLASSIFICATION_TYPE = U
NORAD_CAT_ID   = 21422
ELEMENT_SET_NO = 999
REV_AT_EPOCH   = 85362
BSTAR          = .25365E-3
MEAN_MOTION_DOT = .3166E-4
MEAN_MOTION_DDOT = 0

