DELTA 2 R/B(1)          
1 20453U 90008B   26004.02691396  .00066989  00000+0  10059-2 0  9993
2 20453  35.6042 236.3968 0105278  20.6929 339.8023 15.47495909916089
COSMOS 2058             
1 20465U 90010A   26004.74362286  .00005414  00000+0  32460-3 0  9998
2 20465  82.4720 110.4050 0010031 190.6287 169.4732 15.10734374932585
SL-14 R/B               
1 20466U 90010B   26004.61123304  .00000787  00000+0  92501-4 0  9992
2 20466  82.5034 327.5665 0020603 147.2379 213.0118 14.83498817918984
SL-14 R/B               
1 20511U 90018B   26004.83738346  .00000799  00000+0  97459-4 0  9993
2 20511  82.5221 282.7784 0015194 305.6523  54.3276 14.82076604913124
HST                     
1 20580U 90037B   26004.45283300  .00008513  00000+0  29118-3 0  9991
2 20580  28.4666 117.8486 0002525 116.7014 243.3840 15.28391830763479
SL-16 R/B               
1 20625U 90046B   26004.57958428  .00000366  00000+0  21369-3 0  9992
2 20625  70.9996  72.5565 0012802  34.6196 325.5758 14.15001310839325
COSMOS 2084             
1 20663U 90055A   26004.82173664  .00004340  00000+0  31430-3 0  9999
2 20663  62.7887 193.3356 0027845 177.9923 182.1294 15.05186824926702
SL-6 R/B(2)             
1 20666U 90055D   26004.65215377  .00003399  00000+0  26380-3 0  9992
2 20666  62.7841 111.5562 0015572 323.6778  36.3263 15.03215788928560
SL-8 R/B                
1 20775U 90078B   26004.82216171  .00014729  00000+0  45069-3 0  9994
2 20775  82.9069 308.6370 0369146 228.1395 128.7779 14.86777954799805
SL-8 R/B                
1 21088U 91006B   26004.70589831  .00000034  00000+0  19173-4 0  9999
2 21088  82.9410 217.6294 0021737 212.0767 218.3405 13.77492913755265
OKEAN-3                 
1 21397U 91039A   26004.83205126  .00004874  00000+0  34749-3 0  9995
2 21397  82.5151  38.6908 0014237 181.8982 178.2193 15.04291180855431
COSMOS 2151             
1 21422U 91042A   26004.84181467  .00003166  00000+0  25365-3 0  9997
2 21422  82.4975 145.2395 0011138 275.9928  84.0026 14.99803661853624
